{"type": "FeatureCollection", "features": [{"type": "Feature", "properties": {"suburb": "Springvale", "pct_asian": 56.4, "total_pop": 22174, "dominant_cuisine": "Vietnamese", "suburb_label": "Springvale", "cuisine_chinese": 7, "cuisine_indian": 4, "cuisine_korean": 1, "cuisine_other_asian": 5, "cuisine_thai": 4, "cuisine_vietnamese": 13, "centroid_lng": 145.151, "centroid_lat": -37.9524}, "geometry": {"type": "Polygon", "coordinates": [[[145.135, -37.962], [145.175, -37.962], [145.175, -37.938], [145.135, -37.938], [145.135, -37.962]]]}, "pct_asian": 56.4, "suburb": "Springvale", "total_pop": 22174}, {"type": "Feature", "properties": {"suburb": "Box Hill", "pct_asian": 53.6, "total_pop": 14353, "dominant_cuisine": "Chinese", "suburb_label": "Box Hill", "cuisine_chinese": 36, "cuisine_japanese": 6, "cuisine_korean": 8, "cuisine_other_asian": 4, "cuisine_thai": 1, "cuisine_vietnamese": 3, "centroid_lng": 145.122, "centroid_lat": -37.8224}, "geometry": {"type": "Polygon", "coordinates": [[[145.108, -37.832], [145.143, -37.832], [145.143, -37.808], [145.108, -37.808], [145.108, -37.832]]]}, "pct_asian": 53.6, "suburb": "Box Hill", "total_pop": 14353}, {"type": "Feature", "properties": {"suburb": "Melbourne", "pct_asian": 48.3, "total_pop": 54941, "dominant_cuisine": "Japanese", "suburb_label": "Melbourne CBD", "cuisine_chinese": 114, "cuisine_indian": 37, "cuisine_japanese": 129, "cuisine_korean": 38, "cuisine_malaysian": 16, "cuisine_other_asian": 45, "cuisine_thai": 33, "cuisine_vietnamese": 30, "centroid_lng": 144.9602, "centroid_lat": -37.815}, "geometry": {"type": "Polygon", "coordinates": [[[144.947, -37.825], [144.98, -37.825], [144.98, -37.8], [144.947, -37.8], [144.947, -37.825]]]}, "pct_asian": 48.3, "suburb": "Melbourne", "total_pop": 54941}, {"type": "Feature", "properties": {"suburb": "Glen Waverley", "pct_asian": 47.9, "total_pop": 42642, "dominant_cuisine": "Japanese", "suburb_label": "Glen Waverley", "cuisine_chinese": 4, "cuisine_japanese": 9, "cuisine_korean": 5, "cuisine_malaysian": 1, "cuisine_other_asian": 3, "cuisine_thai": 1, "cuisine_vietnamese": 1, "centroid_lng": 145.166, "centroid_lat": -37.8832}, "geometry": {"type": "Polygon", "coordinates": [[[145.15, -37.894], [145.19, -37.894], [145.19, -37.867], [145.15, -37.867], [145.15, -37.894]]]}, "pct_asian": 47.9, "suburb": "Glen Waverley", "total_pop": 42642}]}