{"type": "FeatureCollection", "features": [{"type": "Feature", "properties" : {"state": "VIC", "state_name": "Victoria", "total_pop": 6503491, "asian_born": 1038042, "pct_asian": 16.0}, "geometry": {"type": "Polygon", "coordinates": [[[140.9, -34.0], [141.0, -34.0], [141.0, -38.0], [142.0, -38.5], [143.0, -39.0], [144.0, -38.8], [145.0, -38.5], [146.5, -38.8], [148.0, -37.8], [150.0, -37.5], [149.0, -37.0], [148.5, -37.3], [147.0, -36.0], [145.0, -35.9], [143.0, -34.9], [141.0, -34.0], [140.9, -34.0]]]}}, {"type": "Feature", "properties": {"state": "NSW", "state_name": "New South Wales", "total_pop": 8072163, "asian_born": 1222565, "pct_asian": 15.1}, "geometry": {"type": "Polygon", "coordinates": [[[141.0, -26.0], [141.0, -34.0], [143.0, -34.9], [145.0, -35.9], [147.0, -36.0], [148.5, -37.3], [150.0, -37.5], [151.0, -33.5], [151.6, -32.0], [152.5, -28.0], [153.6, -24.0], [152.0, -23.0], [149.0, -22.0], [145.0, -22.0], [141.0, -22.0], [141.0, -26.0]]]}}, {"type": "Feature", "properties": {"state": "QLD", "state_name": "Queensland", "total_pop": 5185905, "asian_born": 504873, "pct_asian": 9.7}, "geometry": {"type": "Polygon", "coordinates": [[[138.0, -26.0], [141.0, -26.0], [141.0, -22.0], [145.0, -22.0], [149.0, -22.0], [152.0, -23.0], [153.6, -24.0], [153.6, -28.0], [153.0, -30.0], [151.0, -26.0], [149.0, -22.0], [148.0, -20.0], [146.5, -19.5], [145.5, -18.0], [144.5, -14.5], [143.0, -12.0], [141.0, -13.0], [138.5, -14.0], [138.0, -17.0], [138.0, -26.0]]]}}, {"type": "Feature", "properties": {"state": "SA", "state_name": "South Australia", "total_pop": 1820495, "asian_born": 175386, "pct_asian": 9.6}, "geometry": {"type": "Polygon", "coordinates": [[[129.0, -26.0], [141.0, -26.0], [141.0, -34.0], [140.9, -34.0], [140.9, -38.0], [139.5, -36.0], [138.5, -35.8], [137.0, -35.8], [135.0, -34.5], [133.0, -32.5], [131.0, -33.0], [129.0, -34.0], [129.0, -26.0]]]}}, {"type": "Feature", "properties": {"state": "WA", "state_name": "Western Australia", "total_pop": 2660088, "asian_born": 347026, "pct_asian": 13.0}, "geometry": {"type": "Polygon", "coordinates": [[[129.0, -13.5], [129.0, -34.0], [115.5, -34.5], [114.0, -32.5], [113.0, -26.0], [113.5, -22.0], [114.5, -20.5], [116.0, -16.5], [119.0, -14.0], [122.0, -13.5], [126.0, -13.5], [129.0, -13.5]]]}}, {"type": "Feature", "properties": {"state": "TAS", "state_name": "Tasmania", "total_pop": 541479, "asian_born": 27698, "pct_asian": 5.1}, "geometry": {"type": "Polygon", "coordinates": [[[144.5, -40.0], [146.0, -41.0], [148.0, -41.0], [148.5, -40.5], [148.3, -43.0], [147.5, -43.5], [146.5, -43.5], [145.5, -43.0], [144.5, -43.0], [144.0, -42.0], [144.5, -40.0]]]}}, {"type": "Feature", "properties": {"state": "NT", "state_name": "Northern Territory", "total_pop": 250230, "asian_born": 21945, "pct_asian": 8.8}, "geometry": {"type": "Polygon", "coordinates": [[[129.0, -13.5], [129.0, -26.0], [138.0, -26.0], [138.0, -17.0], [138.5, -14.0], [136.0, -12.0], [132.0, -11.5], [130.0, -12.0], [129.0, -13.5]]]}}, {"type": "Feature", "properties": {"state": "ACT", "state_name": "Australian Capital Territory", "total_pop": 453557, "asian_born": 74020, "pct_asian": 16.3}, "geometry": {"type": "Polygon", "coordinates": [[[149.0, -35.1], [149.4, -35.1], [149.4, -35.9], [149.0, -35.9], [148.8, -35.5], [149.0, -35.1]]]}}]}
