{"type": "FeatureCollection", "features": [{"type": "Feature", "properties": {"suburb": "Springvale", "pct_asian": 56.4, "total_pop": 22174}, "geometry": {"type": "Polygon", "coordinates": [[[145.135, -37.962], [145.175, -37.962], [145.175, -37.938], [145.135, -37.938], [145.135, -37.962]]]}}, {"type": "Feature", "properties": {"suburb": "Box Hill", "pct_asian": 53.6, "total_pop": 14353}, "geometry": {"type": "Polygon", "coordinates": [[[145.108, -37.832], [145.143, -37.832], [145.143, -37.808], [145.108, -37.808], [145.108, -37.832]]]}}, {"type": "Feature", "properties": {"suburb": "Clayton", "pct_asian": 52.3, "total_pop": 18988}, "geometry": {"type": "Polygon", "coordinates": [[[145.108, -37.93], [145.14, -37.93], [145.14, -37.905], [145.108, -37.905], [145.108, -37.93]]]}}, {"type": "Feature", "properties": {"suburb": "Springvale South", "pct_asian": 50.0, "total_pop": 12766}, "geometry": {"type": "Polygon", "coordinates": [[[145.14, -37.978], [145.175, -37.978], [145.175, -37.955], [145.14, -37.955], [145.14, -37.978]]]}}, {"type": "Feature", "properties": {"suburb": "Melbourne", "pct_asian": 48.3, "total_pop": 54941}, "geometry": {"type": "Polygon", "coordinates": [[[144.947, -37.825], [144.98, -37.825], [144.98, -37.8], [144.947, -37.8], [144.947, -37.825]]]}}, {"type": "Feature", "properties": {"suburb": "Glen Waverley", "pct_asian": 47.9, "total_pop": 42642}, "geometry": {"type": "Polygon", "coordinates": [[[145.15, -37.894], [145.19, -37.894], [145.19, -37.867], [145.15, -37.867], [145.15, -37.894]]]}}, {"type": "Feature", "properties": {"suburb": "Notting Hill", "pct_asian": 44.3, "total_pop": 2895}, "geometry": {"type": "Polygon", "coordinates": [[[145.11, -37.916], [145.142, -37.916], [145.142, -37.897], [145.11, -37.897], [145.11, -37.916]]]}}, {"type": "Feature", "properties": {"suburb": "Noble Park", "pct_asian": 44.3, "total_pop": 32257}, "geometry": {"type": "Polygon", "coordinates": [[[145.16, -37.978], [145.2, -37.978], [145.2, -37.958], [145.16, -37.958], [145.16, -37.978]]]}}, {"type": "Feature", "properties": {"suburb": "Clayton South", "pct_asian": 44.3, "total_pop": 13381}, "geometry": {"type": "Polygon", "coordinates": [[[145.115, -37.95], [145.148, -37.95], [145.148, -37.928], [145.115, -37.928], [145.115, -37.95]]]}}, {"type": "Feature", "properties": {"suburb": "Williams Landing", "pct_asian": 44.1, "total_pop": 9448}, "geometry": {"type": "Polygon", "coordinates": [[[144.73, -37.878], [144.765, -37.878], [144.765, -37.855], [144.73, -37.855], [144.73, -37.878]]]}}, {"type": "Feature", "properties": {"suburb": "Truganina", "pct_asian": 42.9, "total_pop": 36305}, "geometry": {"type": "Polygon", "coordinates": [[[144.72, -37.876], [144.755, -37.876], [144.755, -37.852], [144.72, -37.852], [144.72, -37.876]]]}}, {"type": "Feature", "properties": {"suburb": "Docklands", "pct_asian": 42.5, "total_pop": 15495}, "geometry": {"type": "Polygon", "coordinates": [[[144.938, -37.827], [144.958, -37.827], [144.958, -37.812], [144.938, -37.812], [144.938, -37.827]]]}}, {"type": "Feature", "properties": {"suburb": "Braybrook", "pct_asian": 42.0, "total_pop": 9682}, "geometry": {"type": "Polygon", "coordinates": [[[144.849, -37.8], [144.878, -37.8], [144.878, -37.78], [144.849, -37.78], [144.849, -37.8]]]}}, {"type": "Feature", "properties": {"suburb": "Tarneit", "pct_asian": 42.0, "total_pop": 56370}, "geometry": {"type": "Polygon", "coordinates": [[[144.665, -37.862], [144.706, -37.862], [144.706, -37.835], [144.665, -37.835], [144.665, -37.862]]]}}, {"type": "Feature", "properties": {"suburb": "Sunshine North", "pct_asian": 39.2, "total_pop": 12047}, "geometry": {"type": "Polygon", "coordinates": [[[144.82, -37.78], [144.85, -37.78], [144.85, -37.76], [144.82, -37.76], [144.82, -37.78]]]}}, {"type": "Feature", "properties": {"suburb": "Keysborough", "pct_asian": 38.8, "total_pop": 30018}, "geometry": {"type": "Polygon", "coordinates": [[[145.16, -38.0], [145.208, -38.0], [145.208, -37.975], [145.16, -37.975], [145.16, -38.0]]]}}, {"type": "Feature", "properties": {"suburb": "Aintree", "pct_asian": 38.7, "total_pop": 7982}, "geometry": {"type": "Polygon", "coordinates": [[[144.724, -37.668], [144.756, -37.668], [144.756, -37.645], [144.724, -37.645], [144.724, -37.668]]]}}, {"type": "Feature", "properties": {"suburb": "Burwood East", "pct_asian": 37.8, "total_pop": 10675}, "geometry": {"type": "Polygon", "coordinates": [[[145.118, -37.862], [145.148, -37.862], [145.148, -37.843], [145.118, -37.843], [145.118, -37.862]]]}}, {"type": "Feature", "properties": {"suburb": "Manor Lakes", "pct_asian": 37.0, "total_pop": 12675}, "geometry": {"type": "Polygon", "coordinates": [[[144.678, -37.95], [144.715, -37.95], [144.715, -37.925], [144.678, -37.925], [144.678, -37.95]]]}}, {"type": "Feature", "properties": {"suburb": "Laverton", "pct_asian": 37.0, "total_pop": 4760}, "geometry": {"type": "Polygon", "coordinates": [[[144.757, -37.872], [144.788, -37.872], [144.788, -37.85], [144.757, -37.85], [144.757, -37.872]]]}}, {"type": "Feature", "properties": {"suburb": "St Albans", "pct_asian": 36.9, "total_pop": 38042}, "geometry": {"type": "Polygon", "coordinates": [[[144.79, -37.756], [144.822, -37.756], [144.822, -37.736], [144.79, -37.736], [144.79, -37.756]]]}}, {"type": "Feature", "properties": {"suburb": "Southbank", "pct_asian": 36.9, "total_pop": 22631}, "geometry": {"type": "Polygon", "coordinates": [[[144.957, -37.832], [144.975, -37.832], [144.975, -37.82], [144.957, -37.82], [144.957, -37.832]]]}}, {"type": "Feature", "properties": {"suburb": "Doncaster", "pct_asian": 36.5, "total_pop": 25020}, "geometry": {"type": "Polygon", "coordinates": [[[145.118, -37.793], [145.155, -37.793], [145.155, -37.768], [145.118, -37.768], [145.118, -37.793]]]}}, {"type": "Feature", "properties": {"suburb": "Lyndhurst", "pct_asian": 36.4, "total_pop": 8926}, "geometry": {"type": "Polygon", "coordinates": [[[145.207, -38.068], [145.248, -38.068], [145.248, -38.044], [145.207, -38.044], [145.207, -38.068]]]}}, {"type": "Feature", "properties": {"suburb": "Box Hill North", "pct_asian": 36.3, "total_pop": 12337}, "geometry": {"type": "Polygon", "coordinates": [[[145.108, -37.812], [145.143, -37.812], [145.143, -37.79], [145.108, -37.79], [145.108, -37.812]]]}}, {"type": "Feature", "properties": {"suburb": "Carlton", "pct_asian": 36.2, "total_pop": 16055}, "geometry": {"type": "Polygon", "coordinates": [[[144.96, -37.805], [144.98, -37.805], [144.98, -37.787], [144.96, -37.787], [144.96, -37.805]]]}}, {"type": "Feature", "properties": {"suburb": "Doncaster East", "pct_asian": 34.9, "total_pop": 30926}, "geometry": {"type": "Polygon", "coordinates": [[[145.15, -37.795], [145.187, -37.795], [145.187, -37.768], [145.15, -37.768], [145.15, -37.795]]]}}, {"type": "Feature", "properties": {"suburb": "Cobblebank", "pct_asian": 34.8, "total_pop": 3601}, "geometry": {"type": "Polygon", "coordinates": [[[144.52, -37.68], [144.558, -37.68], [144.558, -37.655], [144.52, -37.655], [144.52, -37.68]]]}}, {"type": "Feature", "properties": {"suburb": "West Melbourne", "pct_asian": 34.7, "total_pop": 8025}, "geometry": {"type": "Polygon", "coordinates": [[[144.93, -37.812], [144.955, -37.812], [144.955, -37.795], [144.93, -37.795], [144.93, -37.812]]]}}, {"type": "Feature", "properties": {"suburb": "Mount Waverley", "pct_asian": 34.5, "total_pop": 35340}, "geometry": {"type": "Polygon", "coordinates": [[[145.12, -37.89], [145.158, -37.89], [145.158, -37.865], [145.12, -37.865], [145.12, -37.89]]]}}, {"type": "Feature", "properties": {"suburb": "Cairnlea", "pct_asian": 34.1, "total_pop": 10038}, "geometry": {"type": "Polygon", "coordinates": [[[144.83, -37.782], [144.858, -37.782], [144.858, -37.762], [144.83, -37.762], [144.83, -37.782]]]}}, {"type": "Feature", "properties": {"suburb": "Burwood", "pct_asian": 34.1, "total_pop": 15147}, "geometry": {"type": "Polygon", "coordinates": [[[145.092, -37.857], [145.12, -37.857], [145.12, -37.838], [145.092, -37.838], [145.092, -37.857]]]}}, {"type": "Feature", "properties": {"suburb": "Kalkallo", "pct_asian": 34.0, "total_pop": 5548}, "geometry": {"type": "Polygon", "coordinates": [[[144.945, -37.562], [144.978, -37.562], [144.978, -37.54], [144.945, -37.54], [144.945, -37.562]]]}}, {"type": "Feature", "properties": {"suburb": "Strathtulloh", "pct_asian": 33.8, "total_pop": 3997}, "geometry": {"type": "Polygon", "coordinates": [[[144.528, -37.68], [144.562, -37.68], [144.562, -37.657], [144.528, -37.657], [144.528, -37.68]]]}}, {"type": "Feature", "properties": {"suburb": "Clyde North", "pct_asian": 33.7, "total_pop": 31681}, "geometry": {"type": "Polygon", "coordinates": [[[145.328, -38.118], [145.37, -38.118], [145.37, -38.092], [145.328, -38.092], [145.328, -38.118]]]}}, {"type": "Feature", "properties": {"suburb": "Balwyn", "pct_asian": 33.5, "total_pop": 13495}, "geometry": {"type": "Polygon", "coordinates": [[[145.08, -37.82], [145.108, -37.82], [145.108, -37.8], [145.08, -37.8], [145.08, -37.82]]]}}, {"type": "Feature", "properties": {"suburb": "Sunshine", "pct_asian": 33.5, "total_pop": 9445}, "geometry": {"type": "Polygon", "coordinates": [[[144.82, -37.8], [144.85, -37.8], [144.85, -37.778], [144.82, -37.778], [144.82, -37.8]]]}}, {"type": "Feature", "properties": {"suburb": "Point Cook", "pct_asian": 33.5, "total_pop": 66781}, "geometry": {"type": "Polygon", "coordinates": [[[144.742, -37.912], [144.785, -37.912], [144.785, -37.888], [144.742, -37.888], [144.742, -37.912]]]}}, {"type": "Feature", "properties": {"suburb": "Wantirna South", "pct_asian": 33.2, "total_pop": 20754}, "geometry": {"type": "Polygon", "coordinates": [[[145.22, -37.882], [145.252, -37.882], [145.252, -37.858], [145.22, -37.858], [145.22, -37.882]]]}}, {"type": "Feature", "properties": {"suburb": "Lynbrook", "pct_asian": 33.0, "total_pop": 9121}, "geometry": {"type": "Polygon", "coordinates": [[[145.22, -38.053], [145.255, -38.053], [145.255, -38.03], [145.22, -38.03], [145.22, -38.053]]]}}]}